CCSDS_OMM_VERS = 2.0
CREATION_DATE  = 
ORIGINATOR     = 

OBJECT_NAME    = TRANSPORTER-15DL
OBJECT_ID      = 2025-276DL
CENTER_NAME    = EARTH
REF_FRAME      = TEME
TIME_SYSTEM    = UTC
MEAN_ELEMENT_THEORY = SGP/SGP4

EPOCH          = 2025-12-23T19:08:49.672896
MEAN_MOTION    = 15.18695581
ECCENTRICITY   = .0003
INCLINATION    = 97.4434
RA_OF_ASC_NODE = 69.4203
ARG_OF_PERICENTER = 100.7724
MEAN_ANOMALY   = 259.3848

EPHEMERIS_TYPE = 0
CLASSIFICATION_TYPE = U
NORAD_CAT_ID   = 66772
ELEMENT_SET_NO = 999
REV_AT_EPOCH   = 380
BSTAR          = .40583E-3
MEAN_MOTION_DOT = .8354E-4
MEAN_MOTION_DDOT = 0

CCSDS_OMM_VERS = 2.0
CREATION_DATE  = 
ORIGINATOR     = 

OBJECT_NAME    = TRANSPORTER-15DM
OBJECT_ID      = 2025-276DM
CENTER_NAME    = EARTH
REF_FRAME      = TEME
TIME_SYSTEM    = UTC
MEAN_ELEMENT_THEORY = SGP/SGP4

EPOCH          = 2025-12-23T17:35:46.848768
MEAN_MOTION    = 15.18536775
ECCENTRICITY   = .0003166
INCLINATION    = 97.4430
RA_OF_ASC_NODE = 69.3528
ARG_OF_PERICENTER = 100.8363
MEAN_ANOMALY   = 259.3227

EPHEMERIS_TYPE = 0
CLASSIFICATION_TYPE = U
NORAD_CAT_ID   = 66773
ELEMENT_SET_NO = 999
REV_AT_EPOCH   = 379
BSTAR          = .45397E-3
MEAN_MOTION_DOT = .9312E-4
MEAN_MOTION_DDOT = 0

CCSDS_OMM_VERS = 2.0
CREATION_DATE  = 
ORIGINATOR     = 

OBJECT_NAME    = TRANSPORTER-15DN
OBJECT_ID      = 2025-276DN
CENTER_NAME    = EARTH
REF_FRAME      = TEME
TIME_SYSTEM    = UTC
MEAN_ELEMENT_THEORY = SGP/SGP4

EPOCH          = 2025-12-23T17:35:01.379904
MEAN_MOTION    = 15.18591057
ECCENTRICITY   = .0003053
INCLINATION    = 97.4416
RA_OF_ASC_NODE = 69.3492
ARG_OF_PERICENTER = 97.9717
MEAN_ANOMALY   = 262.1864

EPHEMERIS_TYPE = 0
CLASSIFICATION_TYPE = U
NORAD_CAT_ID   = 66774
ELEMENT_SET_NO = 999
REV_AT_EPOCH   = 379
BSTAR          = .36662E-3
MEAN_MOTION_DOT = .7517E-4
MEAN_MOTION_DDOT = 0

CCSDS_OMM_VERS = 2.0
CREATION_DATE  = 
ORIGINATOR     = 

OBJECT_NAME    = PHI 1
OBJECT_ID      = 2025-276DP
CENTER_NAME    = EARTH
REF_FRAME      = TEME
TIME_SYSTEM    = UTC
MEAN_ELEMENT_THEORY = SGP/SGP4

EPOCH          = 2025-12-23T19:08:44.532096
MEAN_MOTION    = 15.18657092
ECCENTRICITY   = .0002859
INCLINATION    = 97.4341
RA_OF_ASC_NODE = 69.3929
ARG_OF_PERICENTER = 67.4002
MEAN_ANOMALY   = 292.7534

EPHEMERIS_TYPE = 0
CLASSIFICATION_TYPE = U
NORAD_CAT_ID   = 66775
ELEMENT_SET_NO = 999
REV_AT_EPOCH   = 380
BSTAR          = .34985E-3
MEAN_MOTION_DOT = .7184E-4
MEAN_MOTION_DDOT = 0

CCSDS_OMM_VERS = 2.0
CREATION_DATE  = 
ORIGINATOR     = 

OBJECT_NAME    = TRANSPORTER-15DQ
OBJECT_ID      = 2025-276DQ
CENTER_NAME    = EARTH
REF_FRAME      = TEME
TIME_SYSTEM    = UTC
MEAN_ELEMENT_THEORY = SGP/SGP4

EPOCH          = 2025-12-23T19:08:11.141952
MEAN_MOTION    = 15.18706213
ECCENTRICITY   = .000292
INCLINATION    = 97.4380
RA_OF_ASC_NODE = 69.4048
ARG_OF_PERICENTER = 83.2721
MEAN_ANOMALY   = 276.8846

EPHEMERIS_TYPE = 0
CLASSIFICATION_TYPE = U
NORAD_CAT_ID   = 66776
ELEMENT_SET_NO = 999
REV_AT_EPOCH   = 380
BSTAR          = .52794E-3
MEAN_MOTION_DOT = .10896E-3
MEAN_MOTION_DDOT = 0

CCSDS_OMM_VERS = 2.0
CREATION_DATE  = 
ORIGINATOR     = 

OBJECT_NAME    = TRANSPORTER-15DR
OBJECT_ID      = 2025-276DR
CENTER_NAME    = EARTH
REF_FRAME      = TEME
TIME_SYSTEM    = UTC
MEAN_ELEMENT_THEORY = SGP/SGP4

EPOCH          = 2025-12-23T19:04:40.179936
MEAN_MOTION    = 15.18935109
ECCENTRICITY   = .000354
INCLINATION    = 97.4468
RA_OF_ASC_NODE = 69.4348
ARG_OF_PERICENTER = 109.9406
MEAN_ANOMALY   = 250.2210

EPHEMERIS_TYPE = 0
CLASSIFICATION_TYPE = U
NORAD_CAT_ID   = 66777
ELEMENT_SET_NO = 999
REV_AT_EPOCH   = 380
BSTAR          = .52935E-3
MEAN_MOTION_DOT = .10998E-3
MEAN_MOTION_DDOT = 0

CCSDS_OMM_VERS = 2.0
CREATION_DATE  = 
ORIGINATOR     = 

OBJECT_NAME    = TRANSPORTER-15DS
OBJECT_ID      = 2025-276DS
CENTER_NAME    = EARTH
REF_FRAME      = TEME
TIME_SYSTEM    = UTC
MEAN_ELEMENT_THEORY = SGP/SGP4

EPOCH          = 2025-12-18T19:26:21.991200
MEAN_MOTION    = 15.16535337
ECCENTRICITY   = .00032319
INCLINATION    = 97.4427
RA_OF_ASC_NODE = 64.4586
ARG_OF_PERICENTER = 41.3734
MEAN_ANOMALY   = 318.7744

EPHEMERIS_TYPE = 0
CLASSIFICATION_TYPE = U
NORAD_CAT_ID   = 66778
ELEMENT_SET_NO = 999
REV_AT_EPOCH   = 304
BSTAR          = .25483693E-3
MEAN_MOTION_DOT = .4904E-4
MEAN_MOTION_DDOT = 0

CCSDS_OMM_VERS = 2.0
CREATION_DATE  = 
ORIGINATOR     = 

OBJECT_NAME    = STARLINK-35867
OBJECT_ID      = 2025-278A
CENTER_NAME    = EARTH
REF_FRAME      = TEME
TIME_SYSTEM    = UTC
MEAN_ELEMENT_THEORY = SGP/SGP4

EPOCH          = 2025-12-23T20:00:01.000224
MEAN_MOTION    = 15.50711950
ECCENTRICITY   = .0001761
INCLINATION    = 42.9994
RA_OF_ASC_NODE = 185.3551
ARG_OF_PERICENTER = 277.2462
MEAN_ANOMALY   = 240.7416

EPHEMERIS_TYPE = 0
CLASSIFICATION_TYPE = U
NORAD_CAT_ID   = 66791
ELEMENT_SET_NO = 999
REV_AT_EPOCH   = 474
BSTAR          = -.39042E-1
MEAN_MOTION_DOT = -.2050039E-1
MEAN_MOTION_DDOT = 0

CCSDS_OMM_VERS = 2.0
CREATION_DATE  = 
ORIGINATOR     = 

OBJECT_NAME    = STARLINK-35990
OBJECT_ID      = 2025-278B
CENTER_NAME    = EARTH
REF_FRAME      = TEME
TIME_SYSTEM    = UTC
MEAN_ELEMENT_THEORY = SGP/SGP4

EPOCH          = 2025-12-23T20:00:01.000224
MEAN_MOTION    = 15.50515015
ECCENTRICITY   = .0001787
INCLINATION    = 42.9996
RA_OF_ASC_NODE = 185.3489
ARG_OF_PERICENTER = 265.2354
MEAN_ANOMALY   = 254.7193

EPHEMERIS_TYPE = 0
CLASSIFICATION_TYPE = U
NORAD_CAT_ID   = 66792
ELEMENT_SET_NO = 999
REV_AT_EPOCH   = 474
BSTAR          = .10115E-2
MEAN_MOTION_DOT = .59317E-3
MEAN_MOTION_DDOT = 0

CCSDS_OMM_VERS = 2.0
CREATION_DATE  = 
ORIGINATOR     = 

OBJECT_NAME    = STARLINK-36051
OBJECT_ID      = 2025-278C
CENTER_NAME    = EARTH
REF_FRAME      = TEME
TIME_SYSTEM    = UTC
MEAN_ELEMENT_THEORY = SGP/SGP4

EPOCH          = 2025-12-23T20:00:01.000224
MEAN_MOTION    = 15.50607165
ECCENTRICITY   = .0001568
INCLINATION    = 42.9993
RA_OF_ASC_NODE = 185.3394
ARG_OF_PERICENTER = 267.7734
MEAN_ANOMALY   = 256.0070

EPHEMERIS_TYPE = 0
CLASSIFICATION_TYPE = U
NORAD_CAT_ID   = 66793
ELEMENT_SET_NO = 999
REV_AT_EPOCH   = 464
BSTAR          = -.20303E-2
MEAN_MOTION_DOT = -.117793E-2
MEAN_MOTION_DDOT = 0

CCSDS_OMM_VERS = 2.0
CREATION_DATE  = 
ORIGINATOR     = 

OBJECT_NAME    = STARLINK-36062
OBJECT_ID      = 2025-278D
CENTER_NAME    = EARTH
REF_FRAME      = TEME
TIME_SYSTEM    = UTC
MEAN_ELEMENT_THEORY = SGP/SGP4

EPOCH          = 2025-12-23T20:00:01.000224
MEAN_MOTION    = 15.50515211
ECCENTRICITY   = .0002177
INCLINATION    = 42.9995
RA_OF_ASC_NODE = 185.3446
ARG_OF_PERICENTER = 262.3314
MEAN_ANOMALY   = 259.5427

EPHEMERIS_TYPE = 0
CLASSIFICATION_TYPE = U
NORAD_CAT_ID   = 66794
ELEMENT_SET_NO = 999
REV_AT_EPOCH   = 474
BSTAR          = .99819E-3
MEAN_MOTION_DOT = .58525E-3
MEAN_MOTION_DDOT = 0

CCSDS_OMM_VERS = 2.0
CREATION_DATE  = 
ORIGINATOR     = 

OBJECT_NAME    = STARLINK-36047
OBJECT_ID      = 2025-278E
CENTER_NAME    = EARTH
REF_FRAME      = TEME
TIME_SYSTEM    = UTC
MEAN_ELEMENT_THEORY = SGP/SGP4

EPOCH          = 2025-12-23T20:00:01.000224
MEAN_MOTION    = 15.50622835
ECCENTRICITY   = .0001625
INCLINATION    = 42.9993
RA_OF_ASC_NODE = 185.3353
ARG_OF_PERICENTER = 267.4791
MEAN_ANOMALY   = 258.2213

EPHEMERIS_TYPE = 0
CLASSIFICATION_TYPE = U
NORAD_CAT_ID   = 66795
ELEMENT_SET_NO = 999
REV_AT_EPOCH   = 464
BSTAR          = -.24557E-2
MEAN_MOTION_DOT = -.142047E-2
MEAN_MOTION_DDOT = 0

