TRANSPORTER-15DL        
1 66772U 25276DL  25357.79779714  .00008354  00000+0  40583-3 0  9995
2 66772  97.4434  69.4203 0003000 100.7724 259.3848 15.18695581  3808
TRANSPORTER-15DM        
1 66773U 25276DM  25357.73318112  .00009312  00000+0  45397-3 0  9994
2 66773  97.4430  69.3528 0003166 100.8363 259.3227 15.18536775  3795
TRANSPORTER-15DN        
1 66774U 25276DN  25357.73265486  .00007517  00000+0  36662-3 0  9990
2 66774  97.4416  69.3492 0003053  97.9717 262.1864 15.18591057  3797
PHI 1                   
1 66775U 25276DP  25357.79773764  .00007184  00000+0  34985-3 0  9996
2 66775  97.4341  69.3929 0002859  67.4002 292.7534 15.18657092  3809
TRANSPORTER-15DQ        
1 66776U 25276DQ  25357.79735118  .00010896  00000+0  52794-3 0  9990
2 66776  97.4380  69.4048 0002920  83.2721 276.8846 15.18706213  3808
TRANSPORTER-15DR        
1 66777U 25276DR  25357.79490949  .00010998  00000+0  52935-3 0  9991
2 66777  97.4468  69.4348 0003540 109.9406 250.2210 15.18935109  3803
TRANSPORTER-15DS        
1 66778U 25276DS  25352.80997675  .00004904  00000+0  25484-3 0  9996
2 66778  97.4427  64.4586 0003231  41.3734 318.7744 15.16535337  3043
STARLINK-35867          
1 66791U 25278A   25357.83334491 -.02050039  00000+0 -39042-1 0  9999
2 66791  42.9994 185.3551 0001761 277.2462 240.7416 15.50711950  4744
STARLINK-35990          
1 66792U 25278B   25357.83334491  .00059317  00000+0  10115-2 0  9995
2 66792  42.9996 185.3489 0001787 265.2354 254.7193 15.50515015  4743
STARLINK-36051          
1 66793U 25278C   25357.83334491 -.00117793  00000+0 -20303-2 0  9991
2 66793  42.9993 185.3394 0001568 267.7734 256.0070 15.50607165  4648
STARLINK-36062          
1 66794U 25278D   25357.83334491  .00058525  00000+0  99819-3 0  9996
2 66794  42.9995 185.3446 0002177 262.3314 259.5427 15.50515211  4746
STARLINK-36047          
1 66795U 25278E   25357.83334491 -.00142047  00000+0 -24557-2 0  9998
2 66795  42.9993 185.3353 0001625 267.4791 258.2213 15.50622835  4643
